{"fetched_at":"2026-03-29T16:36:15Z","count":15609,"tles":[{"name":"STARLINK-30557","line1":"1 58087U 23160N   26087.71530039 -.00000961  00000+0 -25417-4 0  9991","line2":"2 58087  42.9987 333.9998 0001069 271.7506  88.3223 15.27583112135816","category":"Starlink"}]}